{
  "type": "FeatureCollection",
  "features": [
    {
      "type": "Feature",
      "properties": {
        "norad_id": 66392,
        "name": "STARLINK-35671",
        "group": "last-30-days",
        "lat": -21.34600171872953,
        "lon": 144.67202209625776,
        "alt_km": 436.03685383193806,
        "timestamp": "2025-12-03T13:52:08.344713+00:00",
        "meta_object_name": "STARLINK-35671",
        "meta_object_id": "2025-257N",
        "meta_epoch": "2025-12-03T08:00:01.999872",
        "meta_mean_motion": 15.45763859,
        "meta_eccentricity": 0.00013947,
        "meta_inclination": 53.1596,
        "meta_ra_of_asc_node": 308.7966,
        "meta_arg_of_pericenter": 94.0523,
        "meta_mean_anomaly": 191.9265,
        "meta_ephemeris_type": 0,
        "meta_classification_type": "U",
        "meta_norad_cat_id": 66392,
        "meta_element_set_no": 999,
        "meta_rev_at_epoch": 498,
        "meta_bstar": -0.045868878,
        "meta_mean_motion_dot": -0.02011123,
        "meta_mean_motion_ddot": 0,
        "tle_line1": "1 66392U 25257N   25337.33335648 -.02011123  00000+0 -45869-1 0  9996",
        "tle_line2": "2 66392  53.1596 308.7966 0001394  94.0523 191.9265 15.45763859  4983"
      },
      "geometry": {
        "type": "Point",
        "coordinates": [
          144.67202209625776,
          -21.34600171872953
        ]
      }
    },
    {
      "type": "Feature",
      "properties": {
        "norad_id": 66393,
        "name": "STARLINK-35652",
        "group": "last-30-days",
        "lat": -26.382055135840034,
        "lon": 149.45210299624478,
        "alt_km": 422.28142548694086,
        "timestamp": "2025-12-03T13:52:08.344723+00:00",
        "meta_object_name": "STARLINK-35652",
        "meta_object_id": "2025-257P",
        "meta_epoch": "2025-12-03T06:45:29.700000",
        "meta_mean_motion": 15.49339026,
        "meta_eccentricity": 0.0001686,
        "meta_inclination": 53.1588,
        "meta_ra_of_asc_node": 309.0372,
        "meta_arg_of_pericenter": 112.5515,
        "meta_mean_anomaly": 247.5673,
        "meta_ephemeris_type": 0,
        "meta_classification_type": "U",
        "meta_norad_cat_id": 66393,
        "meta_element_set_no": 999,
        "meta_rev_at_epoch": 491,
        "meta_bstar": 0.0017132809,
        "meta_mean_motion_dot": 0.0009612,
        "meta_mean_motion_ddot": 0,
        "tle_line1": "1 66393U 25257P   25337.28159375  .00096120  00000+0  17133-2 0  9992",
        "tle_line2": "2 66393  53.1588 309.0372 0001686 112.5515 247.5673 15.49339026  4914"
      },
      "geometry": {
        "type": "Point",
        "coordinates": [
          149.45210299624478,
          -26.382055135840034
        ]
      }
    },
    {
      "type": "Feature",
      "properties": {
        "norad_id": 66394,
        "name": "STARLINK-35672",
        "group": "last-30-days",
        "lat": -29.190326873535625,
        "lon": 152.37414012697766,
        "alt_km": 422.9423516091674,
        "timestamp": "2025-12-03T13:52:08.344733+00:00",
        "meta_object_name": "STARLINK-35672",
        "meta_object_id": "2025-257Q",
        "meta_epoch": "2025-12-03T06:44:30.391584",
        "meta_mean_motion": 15.49337477,
        "meta_eccentricity": 0.00015583,
        "meta_inclination": 53.1587,
        "meta_ra_of_asc_node": 309.0321,
        "meta_arg_of_pericenter": 87.1671,
        "meta_mean_anomaly": 272.9516,
        "meta_ephemeris_type": 0,
        "meta_classification_type": "U",
        "meta_norad_cat_id": 66394,
        "meta_element_set_no": 999,
        "meta_rev_at_epoch": 491,
        "meta_bstar": 0.0017866612,
        "meta_mean_motion_dot": 0.00100305,
        "meta_mean_motion_ddot": 0,
        "tle_line1": "1 66394U 25257Q   25337.28090731  .00100305  00000+0  17867-2 0  9998",
        "tle_line2": "2 66394  53.1587 309.0321 0001558  87.1671 272.9516 15.49337477  4912"
      },
      "geometry": {
        "type": "Point",
        "coordinates": [
          152.37414012697766,
          -29.190326873535625
        ]
      }
    },
    {
      "type": "Feature",
      "properties": {
        "norad_id": 66395,
        "name": "STARLINK-35681",
        "group": "last-30-days",
        "lat": -30.56742180080414,
        "lon": 153.89271687378977,
        "alt_km": 422.9596802838005,
        "timestamp": "2025-12-03T13:52:08.344744+00:00",
        "meta_object_name": "STARLINK-35681",
        "meta_object_id": "2025-257R",
        "meta_epoch": "2025-12-03T06:44:00.745152",
        "meta_mean_motion": 15.49333045,
        "meta_eccentricity": 0.00015276,
        "meta_inclination": 53.1587,
        "meta_ra_of_asc_node": 309.0303,
        "meta_arg_of_pericenter": 94.4396,
        "meta_mean_anomaly": 265.6788,
        "meta_ephemeris_type": 0,
        "meta_classification_type": "U",
        "meta_norad_cat_id": 66395,
        "meta_element_set_no": 999,
        "meta_rev_at_epoch": 484,
        "meta_bstar": 0.0017110542,
        "meta_mean_motion_dot": 0.00095972,
        "meta_mean_motion_ddot": 0,
        "tle_line1": "1 66395U 25257R   25337.28056418  .00095972  00000+0  17111-2 0  9998",
        "tle_line2": "2 66395  53.1587 309.0303 0001527  94.4396 265.6788 15.49333045  4843"
      },
      "geometry": {
        "type": "Point",
        "coordinates": [
          153.89271687378977,
          -30.56742180080414
        ]
      }
    },
    {
      "type": "Feature",
      "properties": {
        "norad_id": 66396,
        "name": "STARLINK-35669",
        "group": "last-30-days",
        "lat": -31.928175802131413,
        "lon": 155.45604345786427,
        "alt_km": 423.00568149198625,
        "timestamp": "2025-12-03T13:52:08.344754+00:00",
        "meta_object_name": "STARLINK-35669",
        "meta_object_id": "2025-257S",
        "meta_epoch": "2025-12-03T06:43:30.988992",
        "meta_mean_motion": 15.49330673,
        "meta_eccentricity": 0.00014407,
        "meta_inclination": 53.1586,
        "meta_ra_of_asc_node": 309.0274,
        "meta_arg_of_pericenter": 99.4251,
        "meta_mean_anomaly": 260.6921,
        "meta_ephemeris_type": 0,
        "meta_classification_type": "U",
        "meta_norad_cat_id": 66396,
        "meta_element_set_no": 999,
        "meta_rev_at_epoch": 491,
        "meta_bstar": 0.0013802154,
        "meta_mean_motion_dot": 0.00077135,
        "meta_mean_motion_ddot": 0,
        "tle_line1": "1 66396U 25257S   25337.28021978  .00077135  00000+0  13802-2 0  9996",
        "tle_line2": "2 66396  53.1586 309.0274 0001440  99.4251 260.6921 15.49330673  4915"
      },
      "geometry": {
        "type": "Point",
        "coordinates": [
          155.45604345786427,
          -31.928175802131413
        ]
      }
    },
    {
      "type": "Feature",
      "properties": {
        "norad_id": 66397,
        "name": "STARLINK-35510",
        "group": "last-30-days",
        "lat": -33.29391208947314,
        "lon": 157.09783462576965,
        "alt_km": 422.9782445220271,
        "timestamp": "2025-12-03T13:52:08.344764+00:00",
        "meta_object_name": "STARLINK-35510",
        "meta_object_id": "2025-257T",
        "meta_epoch": "2025-12-03T06:43:01.221600",
        "meta_mean_motion": 15.49349259,
        "meta_eccentricity": 0.00011294,
        "meta_inclination": 53.1585,
        "meta_ra_of_asc_node": 309.0257,
        "meta_arg_of_pericenter": 89.2452,
        "meta_mean_anomaly": 270.8687,
        "meta_ephemeris_type": 0,
        "meta_classification_type": "U",
        "meta_norad_cat_id": 66397,
        "meta_element_set_no": 999,
        "meta_rev_at_epoch": 491,
        "meta_bstar": 0.0021199502,
        "meta_mean_motion_dot": 0.00119443,
        "meta_mean_motion_ddot": 0,
        "tle_line1": "1 66397U 25257T   25337.27987525  .00119443  00000+0  21200-2 0  9995",
        "tle_line2": "2 66397  53.1585 309.0257 0001129  89.2452 270.8687 15.49349259  4912"
      },
      "geometry": {
        "type": "Point",
        "coordinates": [
          157.09783462576965,
          -33.29391208947314
        ]
      }
    },
    {
      "type": "Feature",
      "properties": {
        "norad_id": 66398,
        "name": "STARLINK-35642",
        "group": "last-30-days",
        "lat": -34.59133318468496,
        "lon": 158.73065627159394,
        "alt_km": 423.1828103018097,
        "timestamp": "2025-12-03T13:52:08.344777+00:00",
        "meta_object_name": "STARLINK-35642",
        "meta_object_id": "2025-257U",
        "meta_epoch": "2025-12-03T06:42:31.631328",
        "meta_mean_motion": 15.49329756,
        "meta_eccentricity": 0.00012816,
        "meta_inclination": 53.1587,
        "meta_ra_of_asc_node": 309.0228,
        "meta_arg_of_pericenter": 97.3453,
        "meta_mean_anomaly": 262.7702,
        "meta_ephemeris_type": 0,
        "meta_classification_type": "U",
        "meta_norad_cat_id": 66398,
        "meta_element_set_no": 999,
        "meta_rev_at_epoch": 491,
        "meta_bstar": 0.0013505496,
        "meta_mean_motion_dot": 0.00075448,
        "meta_mean_motion_ddot": 0,
        "tle_line1": "1 66398U 25257U   25337.27953277  .00075448  00000+0  13505-2 0  9998",
        "tle_line2": "2 66398  53.1587 309.0228 0001281  97.3453 262.7702 15.49329756  4911"
      },
      "geometry": {
        "type": "Point",
        "coordinates": [
          158.73065627159394,
          -34.59133318468496
        ]
      }
    }
  ]
}